[{"OBJECT_NAME":"PREFIRE-2","OBJECT_ID":"2024-099A","EPOCH":"2026-03-09T13:43:59.023488","MEAN_MOTION":15.2026253,"ECCENTRICITY":0.0011923,"INCLINATION":97.4208,"RA_OF_ASC_NODE":286.39,"ARG_OF_PERICENTER":187.6312,"MEAN_ANOMALY":172.4744,"EPHEMERIS_TYPE":0,"CLASSIFICATION_TYPE":"U","NORAD_CAT_ID":59881,"ELEMENT_SET_NO":999,"REV_AT_EPOCH":9899,"BSTAR":0.00023093563,"MEAN_MOTION_DOT":4.952e-5,"MEAN_MOTION_DDOT":0},{"OBJECT_NAME":"FLOCK 4H-27","OBJECT_ID":"2025-276BS","EPOCH":"2026-03-09T15:28:45.305184","MEAN_MOTION":15.19247235,"ECCENTRICITY":9.007e-5,"INCLINATION":97.4236,"RA_OF_ASC_NODE":143.9415,"ARG_OF_PERICENTER":82.7851,"MEAN_ANOMALY":277.3486,"EPHEMERIS_TYPE":0,"CLASSIFICATION_TYPE":"U","NORAD_CAT_ID":66730,"ELEMENT_SET_NO":999,"REV_AT_EPOCH":1531,"BSTAR":0.00032968114,"MEAN_MOTION_DOT":6.882e-5,"MEAN_MOTION_DDOT":0}]
